{"type": "FeatureCollection", "features": [{"type": "Feature", "properties": {"parcelId": "JP-01-01", "landUse": "industrial", "source": "pre-generated cadastral-style demo"}, "geometry": {"type": "Polygon", "coordinates": [[[75.82562899585716, 26.77441766614012], [75.82621900758451, 26.774441313261537], [75.82623667753326, 26.774926950435383], [75.82562899585716, 26.7749583248008], [75.82562899585716, 26.77441766614012]]]}}, {"type": "Feature", "properties": {"parcelId": "JP-01-02", "landUse": "industrial", "source": "pre-generated cadastral-style demo"}, "geometry": {"type": "Polygon", "coordinates": [[[75.82676343410552, 26.774347121173616], [75.8276263193344, 26.774306395757954], [75.82758599097208, 26.774901758991664], [75.82676343410552, 26.774929558540972], [75.82676343410552, 26.774347121173616]]]}}, {"type": "Feature", "properties": {"parcelId": "JP-01-03", "landUse": "industrial", "source": "pre-generated cadastral-style demo"}, "geometry": {"type": "Polygon", "coordinates": [[[75.82819704625594, 26.774317171995683], [75.8287174468277, 26.77433074044011], [75.82870393004559, 26.77484836143693], [75.82819704625594, 26.7748379759143], [75.82819704625594, 26.774317171995683]]]}}, {"type": "Feature", "properties": {"parcelId": "JP-01-04", "landUse": "industrial", "source": "pre-generated cadastral-style demo"}, "geometry": {"type": "Polygon", "coordinates": [[[75.82937204542942, 26.77434309951632], [75.82997822664863, 26.774314197800678], [75.83002251762007, 26.774870195866708], [75.82937204542942, 26.774900305276827], [75.82937204542942, 26.77434309951632]]]}}, {"type": "Feature", "properties": {"parcelId": "JP-01-05", "landUse": "industrial", "source": "pre-generated cadastral-style demo"}, "geometry": {"type": "Polygon", "coordinates": [[[75.830665608794, 26.774249056297606], [75.83118946844614, 26.77427826423404], [75.83118168444283, 26.774920034714285], [75.830665608794, 26.774885116930776], [75.830665608794, 26.774249056297606]]]}}, {"type": "Feature", "properties": {"parcelId": "JP-01-06", "landUse": "industrial", "source": "pre-generated cadastral-style demo"}, "geometry": {"type": "Polygon", "coordinates": [[[75.83187202502552, 26.77446440609435], [75.83255225947073, 26.774505668878284], [75.83258931132771, 26.774955866846565], [75.83187202502552, 26.77493974242988], [75.83187202502552, 26.77446440609435]]]}}, {"type": "Feature", "properties": {"parcelId": "JP-01-07", "landUse": "industrial", "source": "pre-generated cadastral-style demo"}, "geometry": {"type": "Polygon", "coordinates": [[[75.83304621960876, 26.774287572460302], [75.83381898264669, 26.77433537090967], [75.83382225326365, 26.775033981761673], [75.83304621960876, 26.775004042602596], [75.83304621960876, 26.774287572460302]]]}}, {"type": "Feature", "properties": {"parcelId": "JP-01-08", "landUse": "industrial", "source": "pre-generated cadastral-style demo"}, "geometry": {"type": "Polygon", "coordinates": [[[75.83436643194625, 26.7743499286274], [75.83508175543363, 26.774321950365845], [75.83503885474224, 26.77486197452044], [75.83436643194625, 26.774872462757024], [75.83436643194625, 26.7743499286274]]]}}, {"type": "Feature", "properties": {"parcelId": "JP-01-09", "landUse": "industrial", "source": "pre-generated cadastral-style demo"}, "geometry": {"type": "Polygon", "coordinates": [[[75.83565436764607, 26.77428315301929], [75.8363211775133, 26.77430048947402], [75.83636959403444, 26.774994783359077], [75.83565436764607, 26.77496265678877], [75.83565436764607, 26.77428315301929]]]}}, {"type": "Feature", "properties": {"parcelId": "JP-01-10", "landUse": "industrial", "source": "pre-generated cadastral-style demo"}, "geometry": {"type": "Polygon", "coordinates": [[[75.83689976600456, 26.77432402526673], [75.83775031279777, 26.77429065637779], [75.83774887691031, 26.775083503560495], [75.83689976600456, 26.775060603344432], [75.83689976600456, 26.77432402526673]]]}}, {"type": "Feature", "properties": {"parcelId": "JP-01-11", "landUse": "industrial", "source": "pre-generated cadastral-style demo"}, "geometry": {"type": "Polygon", "coordinates": [[[75.83811715612013, 26.774441235791947], [75.8388963463443, 26.774449653551393], [75.8388966313826, 26.774884101901108], [75.83811715612013, 26.774912319492472], [75.83811715612013, 26.774441235791947]]]}}, {"type": "Feature", "properties": {"parcelId": "JP-01-12", "landUse": "industrial", "source": "pre-generated cadastral-style demo"}, "geometry": {"type": "Polygon", "coordinates": [[[75.83931944311175, 26.774461815810714], [75.84008591983206, 26.774451394395392], [75.84010308885436, 26.77497729019176], [75.83931944311175, 26.774961289958146], [75.83931944311175, 26.774461815810714]]]}}, {"type": "Feature", "properties": {"parcelId": "JP-01-13", "landUse": "industrial", "source": "pre-generated cadastral-style demo"}, "geometry": {"type": "Polygon", "coordinates": [[[75.84067599654098, 26.774302614604352], [75.84147883651828, 26.774319400924725], [75.84148429674653, 26.774934190881396], [75.84067599654098, 26.774968731364552], [75.84067599654098, 26.774302614604352]]]}}, {"type": "Feature", "properties": {"parcelId": "JP-01-14", "landUse": "industrial", "source": "pre-generated cadastral-style demo"}, "geometry": {"type": "Polygon", "coordinates": [[[75.84205387834193, 26.77439477420385], [75.84255151304664, 26.774357856169917], [75.84259949284203, 26.774948196819288], [75.84205387834193, 26.77492112337739], [75.84205387834193, 26.77439477420385]]]}}, {"type": "Feature", "properties": {"parcelId": "JP-01-15", "landUse": "industrial", "source": "pre-generated cadastral-style demo"}, "geometry": {"type": "Polygon", "coordinates": [[[75.84310083613948, 26.77423299649837], [75.84385366281481, 26.774218364361833], [75.84385965116672, 26.77491976986262], [75.84310083613948, 26.774949746880505], [75.84310083613948, 26.77423299649837]]]}}, {"type": "Feature", "properties": {"parcelId": "JP-01-16", "landUse": "industrial", "source": "pre-generated cadastral-style demo"}, "geometry": {"type": "Polygon", "coordinates": [[[75.84427286194365, 26.774314261271194], [75.84510172865681, 26.774286504642948], [75.84513338731738, 26.775077698571728], [75.84427286194365, 26.7750745228305], [75.84427286194365, 26.774314261271194]]]}}, {"type": "Feature", "properties": {"parcelId": "JP-02-01", "landUse": "industrial", "source": "pre-generated cadastral-style demo"}, "geometry": {"type": "Polygon", "coordinates": [[[75.82551606398744, 26.775612170825255], [75.82638107771373, 26.775573011079977], [75.8263745340896, 26.776138357370264], [75.82551606398744, 26.776156640975117], [75.82551606398744, 26.775612170825255]]]}}, {"type": "Feature", "properties": {"parcelId": "JP-02-02", "landUse": "industrial", "source": "pre-generated cadastral-style demo"}, "geometry": {"type": "Polygon", "coordinates": [[[75.82692004887674, 26.775446674973683], [75.82752561513477, 26.775468650399983], [75.82750564736159, 26.776205881085485], [75.82692004887674, 26.77619062385846], [75.82692004887674, 26.775446674973683]]]}}, {"type": "Feature", "properties": {"parcelId": "JP-02-03", "landUse": "industrial", "source": "pre-generated cadastral-style demo"}, "geometry": {"type": "Polygon", "coordinates": [[[75.82820800528769, 26.775489760873253], [75.82877348584809, 26.775529878955837], [75.82880308832411, 26.776099035347617], [75.82820800528769, 26.776072610659313], [75.82820800528769, 26.775489760873253]]]}}, {"type": "Feature", "properties": {"parcelId": "JP-02-04", "landUse": "industrial", "source": "pre-generated cadastral-style demo"}, "geometry": {"type": "Polygon", "coordinates": [[[75.82932183878778, 26.77551188702711], [75.83008038048798, 26.775486285471068], [75.8300959862891, 26.776129637894716], [75.82932183878778, 26.776090081480167], [75.82932183878778, 26.77551188702711]]]}}, {"type": "Feature", "properties": {"parcelId": "JP-02-05", "landUse": "industrial", "source": "pre-generated cadastral-style demo"}, "geometry": {"type": "Polygon", "coordinates": [[[75.83058781044659, 26.775452435942896], [75.83139381304952, 26.77544511001858], [75.83143449852255, 26.776229244061433], [75.83058781044659, 26.7762249171504], [75.83058781044659, 26.775452435942896]]]}}, {"type": "Feature", "properties": {"parcelId": "JP-02-06", "landUse": "industrial", "source": "pre-generated cadastral-style demo"}, "geometry": {"type": "Polygon", "coordinates": [[[75.83196072459347, 26.775491342329858], [75.8325018467001, 26.775482829119447], [75.8324849348392, 26.775996923480697], [75.83196072459347, 26.775994197424964], [75.83196072459347, 26.775491342329858]]]}}, {"type": "Feature", "properties": {"parcelId": "JP-02-07", "landUse": "industrial", "source": "pre-generated cadastral-style demo"}, "geometry": {"type": "Polygon", "coordinates": [[[75.83312841663786, 26.775529895554207], [75.83396754117683, 26.775507189085385], [75.8339661053762, 26.77614518734523], [75.83312841663786, 26.77613629592149], [75.83312841663786, 26.775529895554207]]]}}, {"type": "Feature", "properties": {"parcelId": "JP-02-08", "landUse": "industrial", "source": "pre-generated cadastral-style demo"}, "geometry": {"type": "Polygon", "coordinates": [[[75.8343080720905, 26.77552710056887], [75.83513992808489, 26.775572220980855], [75.83513208456756, 26.776058403215128], [75.8343080720905, 26.77608519608832], [75.8343080720905, 26.77552710056887]]]}}, {"type": "Feature", "properties": {"parcelId": "JP-02-09", "landUse": "industrial", "source": "pre-generated cadastral-style demo"}, "geometry": {"type": "Polygon", "coordinates": [[[75.83570315669803, 26.77558786208869], [75.83628565417666, 26.775598451357943], [75.83633202765107, 26.776155420158414], [75.83570315669803, 26.776172888736703], [75.83570315669803, 26.77558786208869]]]}}, {"type": "Feature", "properties": {"parcelId": "JP-02-10", "landUse": "industrial", "source": "pre-generated cadastral-style demo"}, "geometry": {"type": "Polygon", "coordinates": [[[75.83675259994011, 26.775449538789097], [75.83762613768072, 26.77543425916563], [75.83761897548204, 26.77618259292764], [75.83675259994011, 26.776172238597738], [75.83675259994011, 26.775449538789097]]]}}, {"type": "Feature", "properties": {"parcelId": "JP-02-11", "landUse": "industrial", "source": "pre-generated cadastral-style demo"}, "geometry": {"type": "Polygon", "coordinates": [[[75.83819362261193, 26.77551991888686], [75.83891061245956, 26.77549446840377], [75.83895407464742, 26.776068840720054], [75.83819362261193, 26.77605115497999], [75.83819362261193, 26.77551991888686]]]}}, {"type": "Feature", "properties": {"parcelId": "JP-02-12", "landUse": "industrial", "source": "pre-generated cadastral-style demo"}, "geometry": {"type": "Polygon", "coordinates": [[[75.83938733134312, 26.775429533785445], [75.84002990259299, 26.775403566179058], [75.84002751190407, 26.776071604270076], [75.83938733134312, 26.776088551662593], [75.83938733134312, 26.775429533785445]]]}}, {"type": "Feature", "properties": {"parcelId": "JP-02-13", "landUse": "industrial", "source": "pre-generated cadastral-style demo"}, "geometry": {"type": "Polygon", "coordinates": [[[75.8405819114583, 26.77543522998093], [75.84135906388376, 26.77545424633634], [75.84132821798106, 26.77623558100509], [75.8405819114583, 26.77625466937737], [75.8405819114583, 26.77543522998093]]]}}, {"type": "Feature", "properties": {"parcelId": "JP-02-14", "landUse": "industrial", "source": "pre-generated cadastral-style demo"}, "geometry": {"type": "Polygon", "coordinates": [[[75.84202992921877, 26.77560960606414], [75.84255096427748, 26.775588039996855], [75.84254883569834, 26.77603451222549], [75.84202992921877, 26.776021768700094], [75.84202992921877, 26.77560960606414]]]}}, {"type": "Feature", "properties": {"parcelId": "JP-02-15", "landUse": "industrial", "source": "pre-generated cadastral-style demo"}, "geometry": {"type": "Polygon", "coordinates": [[[75.84312380822844, 26.775529304690036], [75.84391408564433, 26.7755701551278], [75.84389382095758, 26.77610145590049], [75.84312380822844, 26.77610853791159], [75.84312380822844, 26.775529304690036]]]}}, {"type": "Feature", "properties": {"parcelId": "JP-02-16", "landUse": "industrial", "source": "pre-generated cadastral-style demo"}, "geometry": {"type": "Polygon", "coordinates": [[[75.84441955310771, 26.77534330103059], [75.84501264045696, 26.775300419006605], [75.84498598283757, 26.776107143723124], [75.84441955310771, 26.776088308093176], [75.84441955310771, 26.77534330103059]]]}}, {"type": "Feature", "properties": {"parcelId": "JP-03-01", "landUse": "industrial", "source": "pre-generated cadastral-style demo"}, "geometry": {"type": "Polygon", "coordinates": [[[75.82560342214144, 26.77667009404317], [75.82646049263774, 26.776669473565104], [75.82641853682293, 26.777290282914016], [75.82560342214144, 26.777253471776753], [75.82560342214144, 26.77667009404317]]]}}, {"type": "Feature", "properties": {"parcelId": "JP-03-02", "landUse": "industrial", "source": "pre-generated cadastral-style demo"}, "geometry": {"type": "Polygon", "coordinates": [[[75.82684197233849, 26.77667961470218], [75.8275561041886, 26.776678787282396], [75.82751522842923, 26.77735352858996], [75.82684197233849, 26.777341365474463], [75.82684197233849, 26.77667961470218]]]}}, {"type": "Feature", "properties": {"parcelId": "JP-03-03", "landUse": "industrial", "source": "pre-generated cadastral-style demo"}, "geometry": {"type": "Polygon", "coordinates": [[[75.82817670694298, 26.776735449560203], [75.82887374438072, 26.776704207814344], [75.82885992231662, 26.777320748588526], [75.82817670694298, 26.77734126404085], [75.82817670694298, 26.776735449560203]]]}}, {"type": "Feature", "properties": {"parcelId": "JP-03-04", "landUse": "industrial", "source": "pre-generated cadastral-style demo"}, "geometry": {"type": "Polygon", "coordinates": [[[75.82948377920172, 26.776795267912487], [75.8301483583594, 26.776828482229863], [75.83014819590987, 26.777262254372122], [75.82948377920172, 26.7772795826382], [75.82948377920172, 26.776795267912487]]]}}, {"type": "Feature", "properties": {"parcelId": "JP-03-05", "landUse": "industrial", "source": "pre-generated cadastral-style demo"}, "geometry": {"type": "Polygon", "coordinates": [[[75.83075472011906, 26.776681526858173], [75.83134785571237, 26.776690220630414], [75.8313977459457, 26.777220949198085], [75.83075472011906, 26.777220120425817], [75.83075472011906, 26.776681526858173]]]}}, {"type": "Feature", "properties": {"parcelId": "JP-03-06", "landUse": "industrial", "source": "pre-generated cadastral-style demo"}, "geometry": {"type": "Polygon", "coordinates": [[[75.8318590348345, 26.77662567591407], [75.8326045103663, 26.776673757727934], [75.83260404323126, 26.777373974934754], [75.8318590348345, 26.777336936503662], [75.8318590348345, 26.77662567591407]]]}}, {"type": "Feature", "properties": {"parcelId": "JP-03-07", "landUse": "industrial", "source": "pre-generated cadastral-style demo"}, "geometry": {"type": "Polygon", "coordinates": [[[75.83314581417946, 26.77659210542758], [75.8339667507141, 26.77658010636733], [75.83394841682949, 26.777355842301244], [75.83314581417946, 26.777373339695263], [75.83314581417946, 26.77659210542758]]]}}, {"type": "Feature", "properties": {"parcelId": "JP-03-08", "landUse": "industrial", "source": "pre-generated cadastral-style demo"}, "geometry": {"type": "Polygon", "coordinates": [[[75.83436728640804, 26.776625762589116], [75.83499067174496, 26.776600182332334], [75.83498187691985, 26.777218037304255], [75.83436728640804, 26.777232581333962], [75.83436728640804, 26.776625762589116]]]}}, {"type": "Feature", "properties": {"parcelId": "JP-03-09", "landUse": "industrial", "source": "pre-generated cadastral-style demo"}, "geometry": {"type": "Polygon", "coordinates": [[[75.83563370736255, 26.77661198705422], [75.83650876804063, 26.776658189961502], [75.83652779939187, 26.77715164875387], [75.83563370736255, 26.77714819561888], [75.83563370736255, 26.77661198705422]]]}}, {"type": "Feature", "properties": {"parcelId": "JP-03-10", "landUse": "industrial", "source": "pre-generated cadastral-style demo"}, "geometry": {"type": "Polygon", "coordinates": [[[75.83682864530766, 26.7766997862086], [75.83767030742402, 26.77672967222055], [75.83768101392384, 26.777234263869186], [75.83682864530766, 26.777222449545654], [75.83682864530766, 26.7766997862086]]]}}, {"type": "Feature", "properties": {"parcelId": "JP-03-11", "landUse": "industrial", "source": "pre-generated cadastral-style demo"}, "geometry": {"type": "Polygon", "coordinates": [[[75.83818167045172, 26.77667171538659], [75.83871453437081, 26.776718864344712], [75.83871761960818, 26.777307478490187], [75.83818167045172, 26.777340557448145], [75.83818167045172, 26.77667171538659]]]}}, {"type": "Feature", "properties": {"parcelId": "JP-03-12", "landUse": "industrial", "source": "pre-generated cadastral-style demo"}, "geometry": {"type": "Polygon", "coordinates": [[[75.83933038761418, 26.776785950292023], [75.84012666040161, 26.77678960752285], [75.84012213900438, 26.77721151775406], [75.83933038761418, 26.77722534402461], [75.83933038761418, 26.776785950292023]]]}}, {"type": "Feature", "properties": {"parcelId": "JP-03-13", "landUse": "industrial", "source": "pre-generated cadastral-style demo"}, "geometry": {"type": "Polygon", "coordinates": [[[75.84051311201542, 26.776664454420054], [75.84137161662856, 26.776663716881952], [75.84133133582843, 26.777206200253797], [75.84051311201542, 26.77723718099848], [75.84051311201542, 26.776664454420054]]]}}, {"type": "Feature", "properties": {"parcelId": "JP-03-14", "landUse": "industrial", "source": "pre-generated cadastral-style demo"}, "geometry": {"type": "Polygon", "coordinates": [[[75.8419109987885, 26.776711070368847], [75.84273317886584, 26.776729638395395], [75.84273762545199, 26.777170812218692], [75.8419109987885, 26.77720903962105], [75.8419109987885, 26.776711070368847]]]}}, {"type": "Feature", "properties": {"parcelId": "JP-03-15", "landUse": "industrial", "source": "pre-generated cadastral-style demo"}, "geometry": {"type": "Polygon", "coordinates": [[[75.84316995490887, 26.776608486094787], [75.84373633544963, 26.776591342050132], [75.84370109086763, 26.777376364265493], [75.84316995490887, 26.777408406748343], [75.84316995490887, 26.776608486094787]]]}}, {"type": "Feature", "properties": {"parcelId": "JP-03-16", "landUse": "industrial", "source": "pre-generated cadastral-style demo"}, "geometry": {"type": "Polygon", "coordinates": [[[75.84445405725093, 26.77658857027639], [75.8451245556371, 26.776589894072153], [75.8450854610381, 26.77731977709212], [75.84445405725093, 26.777320084187302], [75.84445405725093, 26.77658857027639]]]}}, {"type": "Feature", "properties": {"parcelId": "JP-04-01", "landUse": "industrial", "source": "pre-generated cadastral-style demo"}, "geometry": {"type": "Polygon", "coordinates": [[[75.82563550595742, 26.77778071224292], [75.82622551235724, 26.777785547886324], [75.82620803090157, 26.77845394293264], [75.82563550595742, 26.77849351315311], [75.82563550595742, 26.77778071224292]]]}}, {"type": "Feature", "properties": {"parcelId": "JP-04-02", "landUse": "industrial", "source": "pre-generated cadastral-style demo"}, "geometry": {"type": "Polygon", "coordinates": [[[75.82692902581208, 26.777669289232474], [75.82751098173067, 26.77768797133602], [75.82750840851922, 26.778470726239522], [75.82692902581208, 26.77843802422259], [75.82692902581208, 26.777669289232474]]]}}, {"type": "Feature", "properties": {"parcelId": "JP-04-03", "landUse": "industrial", "source": "pre-generated cadastral-style demo"}, "geometry": {"type": "Polygon", "coordinates": [[[75.82820927171068, 26.77775453819583], [75.82873071193706, 26.777720011213415], [75.82872893087668, 26.778377503214614], [75.82820927171068, 26.778405285202464], [75.82820927171068, 26.77775453819583]]]}}, {"type": "Feature", "properties": {"parcelId": "JP-04-04", "landUse": "industrial", "source": "pre-generated cadastral-style demo"}, "geometry": {"type": "Polygon", "coordinates": [[[75.82941147261886, 26.777921210645776], [75.83002740248156, 26.77795819691643], [75.83003403459104, 26.778343652961535], [75.82941147261886, 26.778335715709055], [75.82941147261886, 26.777921210645776]]]}}, {"type": "Feature", "properties": {"parcelId": "JP-04-05", "landUse": "industrial", "source": "pre-generated cadastral-style demo"}, "geometry": {"type": "Polygon", "coordinates": [[[75.83059114871641, 26.77782070265272], [75.83133592419354, 26.777814907071388], [75.83131324087798, 26.778434967334675], [75.83059114871641, 26.77845536278617], [75.83059114871641, 26.77782070265272]]]}}, {"type": "Feature", "properties": {"parcelId": "JP-04-06", "landUse": "industrial", "source": "pre-generated cadastral-style demo"}, "geometry": {"type": "Polygon", "coordinates": [[[75.83201438329938, 26.777735195295907], [75.83256466122013, 26.777755562422247], [75.83256468745479, 26.778307278274195], [75.83201438329938, 26.77833394661039], [75.83201438329938, 26.777735195295907]]]}}, {"type": "Feature", "properties": {"parcelId": "JP-04-07", "landUse": "industrial", "source": "pre-generated cadastral-style demo"}, "geometry": {"type": "Polygon", "coordinates": [[[75.83321796706832, 26.777796273148386], [75.83384270814483, 26.777756859461725], [75.83383627579752, 26.778390957860214], [75.83321796706832, 26.77838299384552], [75.83321796706832, 26.777796273148386]]]}}, {"type": "Feature", "properties": {"parcelId": "JP-04-08", "landUse": "industrial", "source": "pre-generated cadastral-style demo"}, "geometry": {"type": "Polygon", "coordinates": [[[75.83442718588579, 26.777699124439508], [75.8349683338014, 26.777656659766865], [75.83501346301546, 26.778422785391527], [75.83442718588579, 26.778433021293296], [75.83442718588579, 26.777699124439508]]]}}, {"type": "Feature", "properties": {"parcelId": "JP-04-09", "landUse": "industrial", "source": "pre-generated cadastral-style demo"}, "geometry": {"type": "Polygon", "coordinates": [[[75.8355995220077, 26.777858789306507], [75.83626421900229, 26.777845663066454], [75.83624292670555, 26.77829383220473], [75.8355995220077, 26.778305405522296], [75.8355995220077, 26.777858789306507]]]}}, {"type": "Feature", "properties": {"parcelId": "JP-04-10", "landUse": "industrial", "source": "pre-generated cadastral-style demo"}, "geometry": {"type": "Polygon", "coordinates": [[[75.8368420869343, 26.77785295049313], [75.83760781315397, 26.777820206384273], [75.83758258752633, 26.778474770093734], [75.8368420869343, 26.77846979075568], [75.8368420869343, 26.77785295049313]]]}}, {"type": "Feature", "properties": {"parcelId": "JP-04-11", "landUse": "industrial", "source": "pre-generated cadastral-style demo"}, "geometry": {"type": "Polygon", "coordinates": [[[75.83815035889913, 26.77784837784661], [75.83897967076396, 26.777856651798068], [75.83894381360201, 26.778401722661037], [75.83815035889913, 26.778389708324042], [75.83815035889913, 26.77784837784661]]]}}, {"type": "Feature", "properties": {"parcelId": "JP-04-12", "landUse": "industrial", "source": "pre-generated cadastral-style demo"}, "geometry": {"type": "Polygon", "coordinates": [[[75.83941537296161, 26.777841692434034], [75.8400404120292, 26.777813111700155], [75.84008517885594, 26.778333797603185], [75.83941537296161, 26.778332699276856], [75.83941537296161, 26.777841692434034]]]}}, {"type": "Feature", "properties": {"parcelId": "JP-04-13", "landUse": "industrial", "source": "pre-generated cadastral-style demo"}, "geometry": {"type": "Polygon", "coordinates": [[[75.84077633916199, 26.777845840969167], [75.8413225548283, 26.777836926830318], [75.84134019112051, 26.778440910331224], [75.84077633916199, 26.77841991274734], [75.84077633916199, 26.777845840969167]]]}}, {"type": "Feature", "properties": {"parcelId": "JP-04-14", "landUse": "industrial", "source": "pre-generated cadastral-style demo"}, "geometry": {"type": "Polygon", "coordinates": [[[75.8419212246566, 26.77773414172132], [75.84272798115242, 26.777697981574782], [75.84270298147358, 26.778474645410984], [75.8419212246566, 26.77848593973388], [75.8419212246566, 26.77773414172132]]]}}, {"type": "Feature", "properties": {"parcelId": "JP-04-15", "landUse": "industrial", "source": "pre-generated cadastral-style demo"}, "geometry": {"type": "Polygon", "coordinates": [[[75.84308811967901, 26.777767111615756], [75.84376892252487, 26.77781656415088], [75.84375641379222, 26.7782814228453], [75.84308811967901, 26.77824367784894], [75.84308811967901, 26.777767111615756]]]}}, {"type": "Feature", "properties": {"parcelId": "JP-04-16", "landUse": "industrial", "source": "pre-generated cadastral-style demo"}, "geometry": {"type": "Polygon", "coordinates": [[[75.84444080326448, 26.777875571307206], [75.84513191186683, 26.77785438146501], [75.84511202698629, 26.778340046051333], [75.84444080326448, 26.778303866007064], [75.84444080326448, 26.777875571307206]]]}}, {"type": "Feature", "properties": {"parcelId": "JP-05-01", "landUse": "industrial", "source": "pre-generated cadastral-style demo"}, "geometry": {"type": "Polygon", "coordinates": [[[75.82582240885395, 26.778868486343733], [75.82632948058313, 26.77886921911339], [75.82637831373168, 26.77949891012186], [75.82582240885395, 26.779503242278054], [75.82582240885395, 26.778868486343733]]]}}, {"type": "Feature", "properties": {"parcelId": "JP-05-02", "landUse": "industrial", "source": "pre-generated cadastral-style demo"}, "geometry": {"type": "Polygon", "coordinates": [[[75.82680218574163, 26.77899723683854], [75.82759384277901, 26.77901677576374], [75.82760701636379, 26.779603085998435], [75.82680218574163, 26.77962800581298], [75.82680218574163, 26.77899723683854]]]}}, {"type": "Feature", "properties": {"parcelId": "JP-05-03", "landUse": "industrial", "source": "pre-generated cadastral-style demo"}, "geometry": {"type": "Polygon", "coordinates": [[[75.82825214278706, 26.779060039649064], [75.82886491266161, 26.779046841566494], [75.82890386131332, 26.779529829652365], [75.82825214278706, 26.779549294268808], [75.82825214278706, 26.779060039649064]]]}}, {"type": "Feature", "properties": {"parcelId": "JP-05-04", "landUse": "industrial", "source": "pre-generated cadastral-style demo"}, "geometry": {"type": "Polygon", "coordinates": [[[75.82935781393984, 26.77897397343748], [75.83012487910436, 26.778968364275592], [75.83011959207033, 26.779460631346304], [75.82935781393984, 26.77947877649796], [75.82935781393984, 26.77897397343748]]]}}, {"type": "Feature", "properties": {"parcelId": "JP-05-05", "landUse": "industrial", "source": "pre-generated cadastral-style demo"}, "geometry": {"type": "Polygon", "coordinates": [[[75.83058872668573, 26.778907766687375], [75.831326791836, 26.778952713398564], [75.8312800303684, 26.779472626920395], [75.83058872668573, 26.779444901973466], [75.83058872668573, 26.778907766687375]]]}}, {"type": "Feature", "properties": {"parcelId": "JP-05-06", "landUse": "industrial", "source": "pre-generated cadastral-style demo"}, "geometry": {"type": "Polygon", "coordinates": [[[75.83184195583152, 26.778933849921582], [75.83256670670463, 26.778983712805932], [75.83253672453873, 26.779631442177998], [75.83184195583152, 26.779602300451415], [75.83184195583152, 26.778933849921582]]]}}, {"type": "Feature", "properties": {"parcelId": "JP-05-07", "landUse": "industrial", "source": "pre-generated cadastral-style demo"}, "geometry": {"type": "Polygon", "coordinates": [[[75.83323712842822, 26.779046795347174], [75.83376567341024, 26.77901068303438], [75.83379471071632, 26.77954718749565], [75.83323712842822, 26.779509290217792], [75.83323712842822, 26.779046795347174]]]}}, {"type": "Feature", "properties": {"parcelId": "JP-05-08", "landUse": "industrial", "source": "pre-generated cadastral-style demo"}, "geometry": {"type": "Polygon", "coordinates": [[[75.83446991448237, 26.778856403888973], [75.83508772039464, 26.778884430181858], [75.83510169978757, 26.779627587949633], [75.83446991448237, 26.779602145000556], [75.83446991448237, 26.778856403888973]]]}}, {"type": "Feature", "properties": {"parcelId": "JP-05-09", "landUse": "industrial", "source": "pre-generated cadastral-style demo"}, "geometry": {"type": "Polygon", "coordinates": [[[75.835639462326, 26.77894143902052], [75.83624059216844, 26.778941696334996], [75.83620745575861, 26.779574830232427], [75.835639462326, 26.779610158791456], [75.835639462326, 26.77894143902052]]]}}, {"type": "Feature", "properties": {"parcelId": "JP-05-10", "landUse": "industrial", "source": "pre-generated cadastral-style demo"}, "geometry": {"type": "Polygon", "coordinates": [[[75.83697241191028, 26.77884835605563], [75.837568280573, 26.778846650537446], [75.83759874938842, 26.779651016123612], [75.83697241191028, 26.779665815390906], [75.83697241191028, 26.77884835605563]]]}}, {"type": "Feature", "properties": {"parcelId": "JP-05-11", "landUse": "industrial", "source": "pre-generated cadastral-style demo"}, "geometry": {"type": "Polygon", "coordinates": [[[75.83820114127583, 26.778961474765318], [75.83878812994563, 26.778921155930572], [75.83876715114613, 26.779480642318326], [75.83820114127583, 26.779471374305007], [75.83820114127583, 26.778961474765318]]]}}, {"type": "Feature", "properties": {"parcelId": "JP-05-12", "landUse": "industrial", "source": "pre-generated cadastral-style demo"}, "geometry": {"type": "Polygon", "coordinates": [[[75.83939384408984, 26.779104561779963], [75.84001500212537, 26.779104051200317], [75.840053236073, 26.779544777941812], [75.83939384408984, 26.779557118744762], [75.83939384408984, 26.779104561779963]]]}}, {"type": "Feature", "properties": {"parcelId": "JP-05-13", "landUse": "industrial", "source": "pre-generated cadastral-style demo"}, "geometry": {"type": "Polygon", "coordinates": [[[75.84070217478407, 26.778980993104472], [75.84145433424013, 26.779028501386012], [75.8414437246114, 26.77944851751236], [75.84070217478407, 26.77947210929063], [75.84070217478407, 26.778980993104472]]]}}, {"type": "Feature", "properties": {"parcelId": "JP-05-14", "landUse": "industrial", "source": "pre-generated cadastral-style demo"}, "geometry": {"type": "Polygon", "coordinates": [[[75.84194063464588, 26.778926153458833], [75.84271636239012, 26.77890979080405], [75.84274919132872, 26.779465847195844], [75.84194063464588, 26.779468434382235], [75.84194063464588, 26.778926153458833]]]}}, {"type": "Feature", "properties": {"parcelId": "JP-05-15", "landUse": "industrial", "source": "pre-generated cadastral-style demo"}, "geometry": {"type": "Polygon", "coordinates": [[[75.84309212706967, 26.77889156044952], [75.84376430658315, 26.778913678733044], [75.84379176719614, 26.779521253382573], [75.84309212706967, 26.779511668609477], [75.84309212706967, 26.77889156044952]]]}}, {"type": "Feature", "properties": {"parcelId": "JP-05-16", "landUse": "industrial", "source": "pre-generated cadastral-style demo"}, "geometry": {"type": "Polygon", "coordinates": [[[75.84432011730998, 26.77894731511718], [75.84519936645735, 26.7789349975948], [75.84524503500657, 26.779558663510514], [75.84432011730998, 26.779555436593075], [75.84432011730998, 26.77894731511718]]]}}, {"type": "Feature", "properties": {"parcelId": "JP-06-01", "landUse": "industrial", "source": "pre-generated cadastral-style demo"}, "geometry": {"type": "Polygon", "coordinates": [[[75.82566227980807, 26.7801083408678], [75.82633420117735, 26.780151789406723], [75.8263563676152, 26.780752535903893], [75.82566227980807, 26.780735559053934], [75.82566227980807, 26.7801083408678]]]}}, {"type": "Feature", "properties": {"parcelId": "JP-06-02", "landUse": "industrial", "source": "pre-generated cadastral-style demo"}, "geometry": {"type": "Polygon", "coordinates": [[[75.82696559858981, 26.780131535919203], [75.82755424717648, 26.78015562501687], [75.82752817538308, 26.78059522655183], [75.82696559858981, 26.78055928778623], [75.82696559858981, 26.780131535919203]]]}}, {"type": "Feature", "properties": {"parcelId": "JP-06-03", "landUse": "industrial", "source": "pre-generated cadastral-style demo"}, "geometry": {"type": "Polygon", "coordinates": [[[75.82816887613775, 26.780219113252254], [75.82876304227428, 26.78024598575161], [75.82877827214732, 26.78066277828675], [75.82816887613775, 26.780641355902688], [75.82816887613775, 26.780219113252254]]]}}, {"type": "Feature", "properties": {"parcelId": "JP-06-04", "landUse": "industrial", "source": "pre-generated cadastral-style demo"}, "geometry": {"type": "Polygon", "coordinates": [[[75.82925056933286, 26.780143961568513], [75.83012376688819, 26.78019287151552], [75.83012809693655, 26.780677786229454], [75.82925056933286, 26.780677299223083], [75.82925056933286, 26.780143961568513]]]}}, {"type": "Feature", "properties": {"parcelId": "JP-06-05", "landUse": "industrial", "source": "pre-generated cadastral-style demo"}, "geometry": {"type": "Polygon", "coordinates": [[[75.83070926224025, 26.78023617928791], [75.83139537450384, 26.780253104873253], [75.83136385262395, 26.78069087439585], [75.83070926224025, 26.780662123345902], [75.83070926224025, 26.78023617928791]]]}}, {"type": "Feature", "properties": {"parcelId": "JP-06-06", "landUse": "industrial", "source": "pre-generated cadastral-style demo"}, "geometry": {"type": "Polygon", "coordinates": [[[75.83191808001675, 26.780119638886745], [75.83270601643574, 26.780133510019265], [75.8327500799981, 26.780815755037715], [75.83191808001675, 26.780805158549963], [75.83191808001675, 26.780119638886745]]]}}, {"type": "Feature", "properties": {"parcelId": "JP-06-07", "landUse": "industrial", "source": "pre-generated cadastral-style demo"}, "geometry": {"type": "Polygon", "coordinates": [[[75.83319215072615, 26.780010632123634], [75.83381686467357, 26.779971853002788], [75.83384974207897, 26.780797530006346], [75.83319215072615, 26.780829761059167], [75.83319215072615, 26.780010632123634]]]}}, {"type": "Feature", "properties": {"parcelId": "JP-06-08", "landUse": "industrial", "source": "pre-generated cadastral-style demo"}, "geometry": {"type": "Polygon", "coordinates": [[[75.83447495303867, 26.78016675139014], [75.83496366122182, 26.7801170529373], [75.83493545135269, 26.780688534277765], [75.83447495303867, 26.780654376639838], [75.83447495303867, 26.78016675139014]]]}}, {"type": "Feature", "properties": {"parcelId": "JP-06-09", "landUse": "industrial", "source": "pre-generated cadastral-style demo"}, "geometry": {"type": "Polygon", "coordinates": [[[75.83572434941742, 26.780063909536988], [75.83623644941447, 26.780101364909157], [75.8361997483951, 26.780869567287542], [75.83572434941742, 26.780898390214034], [75.83572434941742, 26.780063909536988]]]}}, {"type": "Feature", "properties": {"parcelId": "JP-06-10", "landUse": "industrial", "source": "pre-generated cadastral-style demo"}, "geometry": {"type": "Polygon", "coordinates": [[[75.8369169353221, 26.780133713409214], [75.8377031312938, 26.780149733177794], [75.83771462361452, 26.780566600335177], [75.8369169353221, 26.78060149936961], [75.8369169353221, 26.780133713409214]]]}}, {"type": "Feature", "properties": {"parcelId": "JP-06-11", "landUse": "industrial", "source": "pre-generated cadastral-style demo"}, "geometry": {"type": "Polygon", "coordinates": [[[75.83821140145818, 26.780031970879815], [75.83892184559241, 26.780059224701063], [75.83895368384132, 26.780682960805667], [75.83821140145818, 26.780661913128448], [75.83821140145818, 26.780031970879815]]]}}, {"type": "Feature", "properties": {"parcelId": "JP-06-12", "landUse": "industrial", "source": "pre-generated cadastral-style demo"}, "geometry": {"type": "Polygon", "coordinates": [[[75.83946676841978, 26.780085705475464], [75.84000645546291, 26.780111147085186], [75.84000380734496, 26.78065628955087], [75.83946676841978, 26.78068423682545], [75.83946676841978, 26.780085705475464]]]}}, {"type": "Feature", "properties": {"parcelId": "JP-06-13", "landUse": "industrial", "source": "pre-generated cadastral-style demo"}, "geometry": {"type": "Polygon", "coordinates": [[[75.84061935298672, 26.780110336349814], [75.84134134076527, 26.780067614782652], [75.84137180582705, 26.780546155371496], [75.84061935298672, 26.780553162066603], [75.84061935298672, 26.780110336349814]]]}}, {"type": "Feature", "properties": {"parcelId": "JP-06-14", "landUse": "industrial", "source": "pre-generated cadastral-style demo"}, "geometry": {"type": "Polygon", "coordinates": [[[75.84197794987224, 26.780091602661322], [75.84261021456999, 26.78007752861688], [75.84258637073273, 26.780725062712285], [75.84197794987224, 26.780726088035486], [75.84197794987224, 26.780091602661322]]]}}, {"type": "Feature", "properties": {"parcelId": "JP-06-15", "landUse": "industrial", "source": "pre-generated cadastral-style demo"}, "geometry": {"type": "Polygon", "coordinates": [[[75.84310284507761, 26.780092244681956], [75.8438107608827, 26.780097308935208], [75.8438551073372, 26.78061053668851], [75.84310284507761, 26.780597541831234], [75.84310284507761, 26.780092244681956]]]}}, {"type": "Feature", "properties": {"parcelId": "JP-06-16", "landUse": "industrial", "source": "pre-generated cadastral-style demo"}, "geometry": {"type": "Polygon", "coordinates": [[[75.84455117646691, 26.78012061610094], [75.84505058222457, 26.78008436525399], [75.84506365238937, 26.780543169630715], [75.84455117646691, 26.780508607066047], [75.84455117646691, 26.78012061610094]]]}}, {"type": "Feature", "properties": {"parcelId": "JP-07-01", "landUse": "industrial", "source": "pre-generated cadastral-style demo"}, "geometry": {"type": "Polygon", "coordinates": [[[75.82562661173255, 26.781208150482144], [75.82642907881213, 26.781168852125013], [75.82638871020116, 26.781992059828546], [75.82562661173255, 26.781963971627405], [75.82562661173255, 26.781208150482144]]]}}, {"type": "Feature", "properties": {"parcelId": "JP-07-02", "landUse": "industrial", "source": "pre-generated cadastral-style demo"}, "geometry": {"type": "Polygon", "coordinates": [[[75.82688014195564, 26.78126373709304], [75.82758122253146, 26.781214682110306], [75.82754836088898, 26.781706183068692], [75.82688014195564, 26.78170617174014], [75.82688014195564, 26.78126373709304]]]}}, {"type": "Feature", "properties": {"parcelId": "JP-07-03", "landUse": "industrial", "source": "pre-generated cadastral-style demo"}, "geometry": {"type": "Polygon", "coordinates": [[[75.82799951101258, 26.7812872646396], [75.82885101755708, 26.781333411558588], [75.82885972116749, 26.781833058516895], [75.82799951101258, 26.781853238874483], [75.82799951101258, 26.7812872646396]]]}}, {"type": "Feature", "properties": {"parcelId": "JP-07-04", "landUse": "industrial", "source": "pre-generated cadastral-style demo"}, "geometry": {"type": "Polygon", "coordinates": [[[75.82933219918893, 26.781200472879814], [75.83014766905198, 26.78122737344515], [75.83019315489167, 26.781756709978406], [75.82933219918893, 26.781748446222352], [75.82933219918893, 26.781200472879814]]]}}, {"type": "Feature", "properties": {"parcelId": "JP-07-05", "landUse": "industrial", "source": "pre-generated cadastral-style demo"}, "geometry": {"type": "Polygon", "coordinates": [[[75.83066708816837, 26.781136744296422], [75.83140064852115, 26.78111841211929], [75.83136130361292, 26.781852606412013], [75.83066708816837, 26.7818130220298], [75.83066708816837, 26.781136744296422]]]}}, {"type": "Feature", "properties": {"parcelId": "JP-07-06", "landUse": "industrial", "source": "pre-generated cadastral-style demo"}, "geometry": {"type": "Polygon", "coordinates": [[[75.83176332471373, 26.781141006414636], [75.83260377913169, 26.78118882372104], [75.83261097517476, 26.781923089444362], [75.83176332471373, 26.781896656078235], [75.83176332471373, 26.781141006414636]]]}}, {"type": "Feature", "properties": {"parcelId": "JP-07-07", "landUse": "industrial", "source": "pre-generated cadastral-style demo"}, "geometry": {"type": "Polygon", "coordinates": [[[75.83326536831092, 26.781184706841746], [75.83387825519705, 26.781215114487942], [75.83386120936868, 26.781852783716896], [75.83326536831092, 26.781839562614795], [75.83326536831092, 26.781184706841746]]]}}, {"type": "Feature", "properties": {"parcelId": "JP-07-08", "landUse": "industrial", "source": "pre-generated cadastral-style demo"}, "geometry": {"type": "Polygon", "coordinates": [[[75.83448273553759, 26.781118434592916], [75.83510874175255, 26.781088414597786], [75.83515846824513, 26.781911261453953], [75.83448273553759, 26.781885655630962], [75.83448273553759, 26.781118434592916]]]}}, {"type": "Feature", "properties": {"parcelId": "JP-07-09", "landUse": "industrial", "source": "pre-generated cadastral-style demo"}, "geometry": {"type": "Polygon", "coordinates": [[[75.83565050518672, 26.78120811370187], [75.83631013187505, 26.78121633810379], [75.83631356861517, 26.781867287243767], [75.83565050518672, 26.78190116690409], [75.83565050518672, 26.78120811370187]]]}}, {"type": "Feature", "properties": {"parcelId": "JP-07-10", "landUse": "industrial", "source": "pre-generated cadastral-style demo"}, "geometry": {"type": "Polygon", "coordinates": [[[75.83701837044096, 26.78120423276408], [75.83763100912178, 26.78116482721924], [75.83759086977764, 26.781942725189847], [75.83701837044096, 26.78192048527621], [75.83701837044096, 26.78120423276408]]]}}, {"type": "Feature", "properties": {"parcelId": "JP-07-11", "landUse": "industrial", "source": "pre-generated cadastral-style demo"}, "geometry": {"type": "Polygon", "coordinates": [[[75.8381671192482, 26.781219970116176], [75.83878434592054, 26.781222081599157], [75.8387691759502, 26.781953678115187], [75.8381671192482, 26.78192148795768], [75.8381671192482, 26.781219970116176]]]}}, {"type": "Feature", "properties": {"parcelId": "JP-07-12", "landUse": "industrial", "source": "pre-generated cadastral-style demo"}, "geometry": {"type": "Polygon", "coordinates": [[[75.83943168886235, 26.78129665128014], [75.8401635929899, 26.781312382071256], [75.84015315122771, 26.781791206050254], [75.83943168886235, 26.781810197119817], [75.83943168886235, 26.78129665128014]]]}}, {"type": "Feature", "properties": {"parcelId": "JP-07-13", "landUse": "industrial", "source": "pre-generated cadastral-style demo"}, "geometry": {"type": "Polygon", "coordinates": [[[75.84077186580197, 26.781260589584427], [75.841377227446, 26.781249843984998], [75.84133865065334, 26.78183604528879], [75.84077186580197, 26.781824204082746], [75.84077186580197, 26.781260589584427]]]}}, {"type": "Feature", "properties": {"parcelId": "JP-07-14", "landUse": "industrial", "source": "pre-generated cadastral-style demo"}, "geometry": {"type": "Polygon", "coordinates": [[[75.8419003913805, 26.781143854005787], [75.8425953430885, 26.781186923499558], [75.84256266656872, 26.781931518404473], [75.8419003913805, 26.78190486764638], [75.8419003913805, 26.781143854005787]]]}}, {"type": "Feature", "properties": {"parcelId": "JP-07-15", "landUse": "industrial", "source": "pre-generated cadastral-style demo"}, "geometry": {"type": "Polygon", "coordinates": [[[75.84303272638918, 26.781214809318215], [75.84381714903661, 26.78119229461004], [75.84382090989843, 26.781751645282036], [75.84303272638918, 26.78172510200023], [75.84303272638918, 26.781214809318215]]]}}, {"type": "Feature", "properties": {"parcelId": "JP-07-16", "landUse": "industrial", "source": "pre-generated cadastral-style demo"}, "geometry": {"type": "Polygon", "coordinates": [[[75.84449067349215, 26.781192948780788], [75.84508975706618, 26.78118792201507], [75.84507461476386, 26.782012673848502], [75.84449067349215, 26.782038012135313], [75.84449067349215, 26.781192948780788]]]}}, {"type": "Feature", "properties": {"parcelId": "JP-08-01", "landUse": "industrial", "source": "pre-generated cadastral-style demo"}, "geometry": {"type": "Polygon", "coordinates": [[[75.82570147224419, 26.782314162850653], [75.82631093369054, 26.782293096175], [75.82628766799716, 26.783015784355356], [75.82570147224419, 26.78304442570295], [75.82570147224419, 26.782314162850653]]]}}, {"type": "Feature", "properties": {"parcelId": "JP-08-02", "landUse": "industrial", "source": "pre-generated cadastral-style demo"}, "geometry": {"type": "Polygon", "coordinates": [[[75.82690562175303, 26.782357712995722], [75.82763674688134, 26.782315264623055], [75.82766620674441, 26.782927781926862], [75.82690562175303, 26.78294929266565], [75.82690562175303, 26.782357712995722]]]}}, {"type": "Feature", "properties": {"parcelId": "JP-08-03", "landUse": "industrial", "source": "pre-generated cadastral-style demo"}, "geometry": {"type": "Polygon", "coordinates": [[[75.82816993104329, 26.782374691549396], [75.82897987010234, 26.782356978064357], [75.82895822940995, 26.78299257752842], [75.82816993104329, 26.782996362371257], [75.82816993104329, 26.782374691549396]]]}}, {"type": "Feature", "properties": {"parcelId": "JP-08-04", "landUse": "industrial", "source": "pre-generated cadastral-style demo"}, "geometry": {"type": "Polygon", "coordinates": [[[75.82951077054138, 26.782380620480435], [75.83011151674312, 26.78241827998416], [75.83007085074156, 26.78315038982814], [75.82951077054138, 26.78313922465881], [75.82951077054138, 26.782380620480435]]]}}, {"type": "Feature", "properties": {"parcelId": "JP-08-05", "landUse": "industrial", "source": "pre-generated cadastral-style demo"}, "geometry": {"type": "Polygon", "coordinates": [[[75.83071085310678, 26.782239221952455], [75.83123909062124, 26.782258625052567], [75.83123686064538, 26.783003358069625], [75.83071085310678, 26.78298167381902], [75.83071085310678, 26.782239221952455]]]}}, {"type": "Feature", "properties": {"parcelId": "JP-08-06", "landUse": "industrial", "source": "pre-generated cadastral-style demo"}, "geometry": {"type": "Polygon", "coordinates": [[[75.83186574418889, 26.782320873669708], [75.83271370183874, 26.78231511205665], [75.83268542630653, 26.782987304074748], [75.83186574418889, 26.783019031510396], [75.83186574418889, 26.782320873669708]]]}}, {"type": "Feature", "properties": {"parcelId": "JP-08-07", "landUse": "industrial", "source": "pre-generated cadastral-style demo"}, "geometry": {"type": "Polygon", "coordinates": [[[75.83309148594097, 26.782512403045434], [75.83381425668884, 26.782501578147023], [75.8338288736663, 26.783007861654742], [75.83309148594097, 26.783030565782706], [75.83309148594097, 26.782512403045434]]]}}, {"type": "Feature", "properties": {"parcelId": "JP-08-08", "landUse": "industrial", "source": "pre-generated cadastral-style demo"}, "geometry": {"type": "Polygon", "coordinates": [[[75.83454992084752, 26.782549205963573], [75.83503659660822, 26.78252542449129], [75.83499057929441, 26.782996218991283], [75.83454992084752, 26.78296105650005], [75.83454992084752, 26.782549205963573]]]}}, {"type": "Feature", "properties": {"parcelId": "JP-08-09", "landUse": "industrial", "source": "pre-generated cadastral-style demo"}, "geometry": {"type": "Polygon", "coordinates": [[[75.83561458178573, 26.78233630590353], [75.83642839237342, 26.782292917411894], [75.83644825996159, 26.783028728177417], [75.83561458178573, 26.783047124847613], [75.83561458178573, 26.78233630590353]]]}}, {"type": "Feature", "properties": {"parcelId": "JP-08-10", "landUse": "industrial", "source": "pre-generated cadastral-style demo"}, "geometry": {"type": "Polygon", "coordinates": [[[75.83701192989206, 26.78250989181475], [75.83755871507374, 26.782538004212746], [75.83753559152238, 26.782980664057742], [75.83701192989206, 26.783011577238522], [75.83701192989206, 26.78250989181475]]]}}, {"type": "Feature", "properties": {"parcelId": "JP-08-11", "landUse": "industrial", "source": "pre-generated cadastral-style demo"}, "geometry": {"type": "Polygon", "coordinates": [[[75.8382499636551, 26.782400060991847], [75.83882132542436, 26.782354464782575], [75.83885761827385, 26.78302359094581], [75.8382499636551, 26.783003155061838], [75.8382499636551, 26.782400060991847]]]}}, {"type": "Feature", "properties": {"parcelId": "JP-08-12", "landUse": "industrial", "source": "pre-generated cadastral-style demo"}, "geometry": {"type": "Polygon", "coordinates": [[[75.83953844169143, 26.78232945894692], [75.84009017943153, 26.782377600333312], [75.84013558737227, 26.7830711941547], [75.83953844169143, 26.783036708269723], [75.83953844169143, 26.78232945894692]]]}}, {"type": "Feature", "properties": {"parcelId": "JP-08-13", "landUse": "industrial", "source": "pre-generated cadastral-style demo"}, "geometry": {"type": "Polygon", "coordinates": [[[75.84075265178038, 26.782552795351005], [75.84133070253012, 26.782543798961964], [75.8413040023043, 26.782975346504106], [75.84075265178038, 26.782963060399926], [75.84075265178038, 26.782552795351005]]]}}, {"type": "Feature", "properties": {"parcelId": "JP-08-14", "landUse": "industrial", "source": "pre-generated cadastral-style demo"}, "geometry": {"type": "Polygon", "coordinates": [[[75.8419696141518, 26.782417234522534], [75.8426575178392, 26.78240448371994], [75.84270497331822, 26.78311757328641], [75.8419696141518, 26.783084365479812], [75.8419696141518, 26.782417234522534]]]}}, {"type": "Feature", "properties": {"parcelId": "JP-08-15", "landUse": "industrial", "source": "pre-generated cadastral-style demo"}, "geometry": {"type": "Polygon", "coordinates": [[[75.8430564466237, 26.78230500838257], [75.84384842141668, 26.7822705494377], [75.84381485891475, 26.782958891596888], [75.8430564466237, 26.782956176005882], [75.8430564466237, 26.78230500838257]]]}}, {"type": "Feature", "properties": {"parcelId": "JP-08-16", "landUse": "industrial", "source": "pre-generated cadastral-style demo"}, "geometry": {"type": "Polygon", "coordinates": [[[75.84438422690582, 26.78231427833091], [75.84506961077597, 26.782290295010185], [75.84511867843801, 26.78300515168171], [75.84438422690582, 26.78296763824918], [75.84438422690582, 26.78231427833091]]]}}, {"type": "Feature", "properties": {"parcelId": "JP-09-01", "landUse": "industrial", "source": "pre-generated cadastral-style demo"}, "geometry": {"type": "Polygon", "coordinates": [[[75.82555886188604, 26.783648811771677], [75.82636396072269, 26.78360525897528], [75.82640421033088, 26.784077531844773], [75.82555886188604, 26.78407300635068], [75.82555886188604, 26.783648811771677]]]}}, {"type": "Feature", "properties": {"parcelId": "JP-09-02", "landUse": "industrial", "source": "pre-generated cadastral-style demo"}, "geometry": {"type": "Polygon", "coordinates": [[[75.82683095970988, 26.783507966396005], [75.827556602341, 26.78352269423605], [75.82755649150201, 26.7841747572618], [75.82683095970988, 26.784205379547732], [75.82683095970988, 26.783507966396005]]]}}, {"type": "Feature", "properties": {"parcelId": "JP-09-03", "landUse": "industrial", "source": "pre-generated cadastral-style demo"}, "geometry": {"type": "Polygon", "coordinates": [[[75.82817736957004, 26.783645291584854], [75.82876554384394, 26.78365500322013], [75.82871847419, 26.78407571677196], [75.82817736957004, 26.784100571921215], [75.82817736957004, 26.783645291584854]]]}}, {"type": "Feature", "properties": {"parcelId": "JP-09-04", "landUse": "industrial", "source": "pre-generated cadastral-style demo"}, "geometry": {"type": "Polygon", "coordinates": [[[75.82930510639704, 26.78351891795753], [75.83015918880989, 26.783486289160667], [75.83013284392317, 26.784335534725905], [75.82930510639704, 26.784320975075367], [75.82930510639704, 26.78351891795753]]]}}, {"type": "Feature", "properties": {"parcelId": "JP-09-05", "landUse": "industrial", "source": "pre-generated cadastral-style demo"}, "geometry": {"type": "Polygon", "coordinates": [[[75.83058759068075, 26.783589919247117], [75.83125878627601, 26.783601332723883], [75.83128943081734, 26.784142612844544], [75.83058759068075, 26.784129873568084], [75.83058759068075, 26.783589919247117]]]}}, {"type": "Feature", "properties": {"parcelId": "JP-09-06", "landUse": "industrial", "source": "pre-generated cadastral-style demo"}, "geometry": {"type": "Polygon", "coordinates": [[[75.83193966730234, 26.783524242836112], [75.83271260811252, 26.783538169435257], [75.83271132811443, 26.78411899018928], [75.83193966730234, 26.784104372860742], [75.83193966730234, 26.783524242836112]]]}}, {"type": "Feature", "properties": {"parcelId": "JP-09-07", "landUse": "industrial", "source": "pre-generated cadastral-style demo"}, "geometry": {"type": "Polygon", "coordinates": [[[75.83323438088958, 26.78361968948044], [75.83378721359198, 26.783650570173016], [75.83379835170722, 26.78416697624518], [75.83323438088958, 26.784178147987003], [75.83323438088958, 26.78361968948044]]]}}, {"type": "Feature", "properties": {"parcelId": "JP-09-08", "landUse": "industrial", "source": "pre-generated cadastral-style demo"}, "geometry": {"type": "Polygon", "coordinates": [[[75.83453563668253, 26.783598279172708], [75.83503489566563, 26.783590244495628], [75.83500152950992, 26.784193567229238], [75.83453563668253, 26.78418668876233], [75.83453563668253, 26.783598279172708]]]}}, {"type": "Feature", "properties": {"parcelId": "JP-09-09", "landUse": "industrial", "source": "pre-generated cadastral-style demo"}, "geometry": {"type": "Polygon", "coordinates": [[[75.83569074423498, 26.783513702174126], [75.83620074520339, 26.783561506326414], [75.83618454026181, 26.784310435831543], [75.83569074423498, 26.784349257919555], [75.83569074423498, 26.783513702174126]]]}}, {"type": "Feature", "properties": {"parcelId": "JP-09-10", "landUse": "industrial", "source": "pre-generated cadastral-style demo"}, "geometry": {"type": "Polygon", "coordinates": [[[75.83688293182763, 26.783477156892246], [75.83758279688104, 26.783432607377417], [75.83753317843825, 26.784093536202597], [75.83688293182763, 26.78406054647134], [75.83688293182763, 26.783477156892246]]]}}, {"type": "Feature", "properties": {"parcelId": "JP-09-11", "landUse": "industrial", "source": "pre-generated cadastral-style demo"}, "geometry": {"type": "Polygon", "coordinates": [[[75.83820371464171, 26.783610439899032], [75.83875834781816, 26.78360441394132], [75.83873468789912, 26.78404828666891], [75.83820371464171, 26.78407525296908], [75.83820371464171, 26.783610439899032]]]}}, {"type": "Feature", "properties": {"parcelId": "JP-09-12", "landUse": "industrial", "source": "pre-generated cadastral-style demo"}, "geometry": {"type": "Polygon", "coordinates": [[[75.83949041095502, 26.783520509178835], [75.84000199297492, 26.783541939748748], [75.84000220312195, 26.784301620059374], [75.83949041095502, 26.78433365646429], [75.83949041095502, 26.783520509178835]]]}}, {"type": "Feature", "properties": {"parcelId": "JP-09-13", "landUse": "industrial", "source": "pre-generated cadastral-style demo"}, "geometry": {"type": "Polygon", "coordinates": [[[75.84053910092045, 26.783510622511606], [75.84138342271474, 26.783467323706912], [75.84137223263005, 26.784296292086367], [75.84053910092045, 26.784288080485915], [75.84053910092045, 26.783510622511606]]]}}, {"type": "Feature", "properties": {"parcelId": "JP-09-14", "landUse": "industrial", "source": "pre-generated cadastral-style demo"}, "geometry": {"type": "Polygon", "coordinates": [[[75.84186864816041, 26.783507384635133], [75.84256290155287, 26.78349847363886], [75.84255120590015, 26.784064932306567], [75.84186864816041, 26.78406377908995], [75.84186864816041, 26.783507384635133]]]}}, {"type": "Feature", "properties": {"parcelId": "JP-09-15", "landUse": "industrial", "source": "pre-generated cadastral-style demo"}, "geometry": {"type": "Polygon", "coordinates": [[[75.84312653162183, 26.783469252223615], [75.84380317930717, 26.78342907396264], [75.84384006930968, 26.78416772536148], [75.84312653162183, 26.784138476203157], [75.84312653162183, 26.783469252223615]]]}}, {"type": "Feature", "properties": {"parcelId": "JP-09-16", "landUse": "industrial", "source": "pre-generated cadastral-style demo"}, "geometry": {"type": "Polygon", "coordinates": [[[75.84448395727985, 26.783439520626725], [75.84501821720825, 26.78347745388586], [75.84497111202418, 26.78420003876312], [75.84448395727985, 26.784175459838867], [75.84448395727985, 26.783439520626725]]]}}, {"type": "Feature", "properties": {"parcelId": "JP-10-01", "landUse": "industrial", "source": "pre-generated cadastral-style demo"}, "geometry": {"type": "Polygon", "coordinates": [[[75.82570394885941, 26.784816574200605], [75.82632385282007, 26.784856023392635], [75.82634874893351, 26.785301979646412], [75.82570394885941, 26.78531708768942], [75.82570394885941, 26.784816574200605]]]}}, {"type": "Feature", "properties": {"parcelId": "JP-10-02", "landUse": "industrial", "source": "pre-generated cadastral-style demo"}, "geometry": {"type": "Polygon", "coordinates": [[[75.82702448996665, 26.784763101360397], [75.82750787545748, 26.784793609917315], [75.82748842142732, 26.78528405753694], [75.82702448996665, 26.785321419492412], [75.82702448996665, 26.784763101360397]]]}}, {"type": "Feature", "properties": {"parcelId": "JP-10-03", "landUse": "industrial", "source": "pre-generated cadastral-style demo"}, "geometry": {"type": "Polygon", "coordinates": [[[75.82820613524208, 26.784794680605962], [75.82872937705432, 26.784843516702544], [75.82874343652888, 26.78524021542752], [75.82820613524208, 26.78526913475554], [75.82820613524208, 26.784794680605962]]]}}, {"type": "Feature", "properties": {"parcelId": "JP-10-04", "landUse": "industrial", "source": "pre-generated cadastral-style demo"}, "geometry": {"type": "Polygon", "coordinates": [[[75.82941931552557, 26.78474444440267], [75.83005462549397, 26.784765251298605], [75.83006182973737, 26.785178572004597], [75.82941931552557, 26.78515376521743], [75.82941931552557, 26.78474444440267]]]}}, {"type": "Feature", "properties": {"parcelId": "JP-10-05", "landUse": "industrial", "source": "pre-generated cadastral-style demo"}, "geometry": {"type": "Polygon", "coordinates": [[[75.83057334846328, 26.784764940422292], [75.83132523341098, 26.784723870404495], [75.83131076175059, 26.785319193407574], [75.83057334846328, 26.78533873020192], [75.83057334846328, 26.784764940422292]]]}}, {"type": "Feature", "properties": {"parcelId": "JP-10-06", "landUse": "industrial", "source": "pre-generated cadastral-style demo"}, "geometry": {"type": "Polygon", "coordinates": [[[75.83176780196122, 26.784730263868774], [75.83258949786939, 26.78470029352785], [75.83258041705406, 26.785205209972446], [75.83176780196122, 26.785210762259485], [75.83176780196122, 26.784730263868774]]]}}, {"type": "Feature", "properties": {"parcelId": "JP-10-07", "landUse": "industrial", "source": "pre-generated cadastral-style demo"}, "geometry": {"type": "Polygon", "coordinates": [[[75.83311396267035, 26.784748878448408], [75.83376744723606, 26.78474178099327], [75.83376518726365, 26.785340642337612], [75.83311396267035, 26.78530101586862], [75.83311396267035, 26.784748878448408]]]}}, {"type": "Feature", "properties": {"parcelId": "JP-10-08", "landUse": "industrial", "source": "pre-generated cadastral-style demo"}, "geometry": {"type": "Polygon", "coordinates": [[[75.83424762226126, 26.7846292606612], [75.83510700761128, 26.784631289502425], [75.83510941937566, 26.78523163118599], [75.83424762226126, 26.785226324404395], [75.83424762226126, 26.7846292606612]]]}}, {"type": "Feature", "properties": {"parcelId": "JP-10-09", "landUse": "industrial", "source": "pre-generated cadastral-style demo"}, "geometry": {"type": "Polygon", "coordinates": [[[75.83551066932091, 26.784762928626034], [75.83634128697594, 26.784766401969453], [75.8362961456721, 26.785285244295604], [75.83551066932091, 26.785324818714297], [75.83551066932091, 26.784762928626034]]]}}, {"type": "Feature", "properties": {"parcelId": "JP-10-10", "landUse": "industrial", "source": "pre-generated cadastral-style demo"}, "geometry": {"type": "Polygon", "coordinates": [[[75.83678581561958, 26.784785918646527], [75.83759807670776, 26.78480779526898], [75.83755985016461, 26.78524788434129], [75.83678581561958, 26.7852170053455], [75.83678581561958, 26.784785918646527]]]}}, {"type": "Feature", "properties": {"parcelId": "JP-10-11", "landUse": "industrial", "source": "pre-generated cadastral-style demo"}, "geometry": {"type": "Polygon", "coordinates": [[[75.83817983276033, 26.784825271908552], [75.83892744153253, 26.78478428017591], [75.83892861206724, 26.785304929705617], [75.83817983276033, 26.78532281479497], [75.83817983276033, 26.784825271908552]]]}}, {"type": "Feature", "properties": {"parcelId": "JP-10-12", "landUse": "industrial", "source": "pre-generated cadastral-style demo"}, "geometry": {"type": "Polygon", "coordinates": [[[75.83943364879052, 26.784683239798664], [75.8401789908015, 26.78466899253909], [75.84017276225319, 26.785171444709203], [75.83943364879052, 26.78518118927187], [75.83943364879052, 26.784683239798664]]]}}, {"type": "Feature", "properties": {"parcelId": "JP-10-13", "landUse": "industrial", "source": "pre-generated cadastral-style demo"}, "geometry": {"type": "Polygon", "coordinates": [[[75.84051434874466, 26.784748561005483], [75.84135883944917, 26.784755455348588], [75.84135265572966, 26.785361630945697], [75.84051434874466, 26.78537053679836], [75.84051434874466, 26.784748561005483]]]}}, {"type": "Feature", "properties": {"parcelId": "JP-10-14", "landUse": "industrial", "source": "pre-generated cadastral-style demo"}, "geometry": {"type": "Polygon", "coordinates": [[[75.84182482284459, 26.784668294969656], [75.8426959810676, 26.784652125033833], [75.84269829138513, 26.785356232712942], [75.84182482284459, 26.785372279127685], [75.84182482284459, 26.784668294969656]]]}}, {"type": "Feature", "properties": {"parcelId": "JP-10-15", "landUse": "industrial", "source": "pre-generated cadastral-style demo"}, "geometry": {"type": "Polygon", "coordinates": [[[75.84321048531044, 26.784527949429037], [75.8437868420371, 26.78448298450049], [75.84375911268943, 26.785336007448553], [75.84321048531044, 26.785347472833738], [75.84321048531044, 26.784527949429037]]]}}, {"type": "Feature", "properties": {"parcelId": "JP-10-16", "landUse": "industrial", "source": "pre-generated cadastral-style demo"}, "geometry": {"type": "Polygon", "coordinates": [[[75.84446813099298, 26.784705004976104], [75.84506997017623, 26.78467569010099], [75.8450871176133, 26.785328340072233], [75.84446813099298, 26.785364368482632], [75.84446813099298, 26.784705004976104]]]}}, {"type": "Feature", "properties": {"parcelId": "JP-11-01", "landUse": "industrial", "source": "pre-generated cadastral-style demo"}, "geometry": {"type": "Polygon", "coordinates": [[[75.8256230984032, 26.78589756174824], [75.82638393682451, 26.78586397728501], [75.82634798174324, 26.78633587299218], [75.8256230984032, 26.786353221481193], [75.8256230984032, 26.78589756174824]]]}}, {"type": "Feature", "properties": {"parcelId": "JP-11-02", "landUse": "industrial", "source": "pre-generated cadastral-style demo"}, "geometry": {"type": "Polygon", "coordinates": [[[75.82684411500686, 26.785905153532628], [75.82770659113551, 26.785905036396837], [75.82770962757026, 26.786379007938397], [75.82684411500686, 26.78634289366685], [75.82684411500686, 26.785905153532628]]]}}, {"type": "Feature", "properties": {"parcelId": "JP-11-03", "landUse": "industrial", "source": "pre-generated cadastral-style demo"}, "geometry": {"type": "Polygon", "coordinates": [[[75.828247260769, 26.785813826931133], [75.828836699121, 26.785860876096123], [75.8288319836916, 26.786619264346207], [75.828247260769, 26.78658993409269], [75.828247260769, 26.785813826931133]]]}}, {"type": "Feature", "properties": {"parcelId": "JP-11-04", "landUse": "industrial", "source": "pre-generated cadastral-style demo"}, "geometry": {"type": "Polygon", "coordinates": [[[75.82948255354464, 26.785825151427304], [75.83016411092026, 26.785807389567044], [75.8301256514455, 26.786522876216793], [75.82948255354464, 26.78651105524099], [75.82948255354464, 26.785825151427304]]]}}, {"type": "Feature", "properties": {"parcelId": "JP-11-05", "landUse": "industrial", "source": "pre-generated cadastral-style demo"}, "geometry": {"type": "Polygon", "coordinates": [[[75.83076005677457, 26.78600495861819], [75.83129862813063, 26.786033394358284], [75.83126902822096, 26.786449771747765], [75.83076005677457, 26.78645306551476], [75.83076005677457, 26.78600495861819]]]}}, {"type": "Feature", "properties": {"parcelId": "JP-11-06", "landUse": "industrial", "source": "pre-generated cadastral-style demo"}, "geometry": {"type": "Polygon", "coordinates": [[[75.83184645715937, 26.785975337406345], [75.83271279044479, 26.78599970440297], [75.83268309916706, 26.78641685828327], [75.83184645715937, 26.786446366280178], [75.83184645715937, 26.785975337406345]]]}}, {"type": "Feature", "properties": {"parcelId": "JP-11-07", "landUse": "industrial", "source": "pre-generated cadastral-style demo"}, "geometry": {"type": "Polygon", "coordinates": [[[75.83319096976321, 26.785921790268503], [75.83368722345641, 26.785898214228034], [75.83365331634138, 26.786453435167026], [75.83319096976321, 26.786481116302713], [75.83319096976321, 26.785921790268503]]]}}, {"type": "Feature", "properties": {"parcelId": "JP-11-08", "landUse": "industrial", "source": "pre-generated cadastral-style demo"}, "geometry": {"type": "Polygon", "coordinates": [[[75.83433988016496, 26.785806232806852], [75.83502193630515, 26.785809936402107], [75.83498113086054, 26.78639260530436], [75.83433988016496, 26.78637030115085], [75.83433988016496, 26.785806232806852]]]}}, {"type": "Feature", "properties": {"parcelId": "JP-11-09", "landUse": "industrial", "source": "pre-generated cadastral-style demo"}, "geometry": {"type": "Polygon", "coordinates": [[[75.83572502081562, 26.78583023700451], [75.83633339561983, 26.785874735771554], [75.83632198321331, 26.786616609976633], [75.83572502081562, 26.78661982896167], [75.83572502081562, 26.78583023700451]]]}}, {"type": "Feature", "properties": {"parcelId": "JP-11-10", "landUse": "industrial", "source": "pre-generated cadastral-style demo"}, "geometry": {"type": "Polygon", "coordinates": [[[75.83688253716691, 26.78569748532039], [75.83767197007346, 26.785689906265585], [75.83763236275438, 26.786463465662678], [75.83688253716691, 26.7864664859998], [75.83688253716691, 26.78569748532039]]]}}, {"type": "Feature", "properties": {"parcelId": "JP-11-11", "landUse": "industrial", "source": "pre-generated cadastral-style demo"}, "geometry": {"type": "Polygon", "coordinates": [[[75.83811604176366, 26.78581477866651], [75.83884812866951, 26.785766467763338], [75.83886545854274, 26.786407988680363], [75.83811604176366, 26.786410775429967], [75.83811604176366, 26.78581477866651]]]}}, {"type": "Feature", "properties": {"parcelId": "JP-11-12", "landUse": "industrial", "source": "pre-generated cadastral-style demo"}, "geometry": {"type": "Polygon", "coordinates": [[[75.83948807855015, 26.785857639515292], [75.84002263113427, 26.785887387976576], [75.84002720358114, 26.786434036541465], [75.83948807855015, 26.786470847282672], [75.83948807855015, 26.785857639515292]]]}}, {"type": "Feature", "properties": {"parcelId": "JP-11-13", "landUse": "industrial", "source": "pre-generated cadastral-style demo"}, "geometry": {"type": "Polygon", "coordinates": [[[75.84075579709018, 26.78589719655467], [75.84137333775011, 26.78591178970503], [75.84137459301957, 26.786482258353082], [75.84075579709018, 26.786455134701686], [75.84075579709018, 26.78589719655467]]]}}, {"type": "Feature", "properties": {"parcelId": "JP-11-14", "landUse": "industrial", "source": "pre-generated cadastral-style demo"}, "geometry": {"type": "Polygon", "coordinates": [[[75.84195729311973, 26.785806855869485], [75.84248857917838, 26.78576686037521], [75.8425005307561, 26.78648904506176], [75.84195729311973, 26.786521054549027], [75.84195729311973, 26.785806855869485]]]}}, {"type": "Feature", "properties": {"parcelId": "JP-11-15", "landUse": "industrial", "source": "pre-generated cadastral-style demo"}, "geometry": {"type": "Polygon", "coordinates": [[[75.84312169848141, 26.785788919257964], [75.8439528528132, 26.785774793418174], [75.84393339999285, 26.786394058608398], [75.84312169848141, 26.78639819235449], [75.84312169848141, 26.785788919257964]]]}}, {"type": "Feature", "properties": {"parcelId": "JP-11-16", "landUse": "industrial", "source": "pre-generated cadastral-style demo"}, "geometry": {"type": "Polygon", "coordinates": [[[75.84446468977268, 26.78584571194511], [75.84516532737209, 26.785895584762613], [75.84516253776717, 26.78648309967468], [75.84446468977268, 26.786505115453785], [75.84446468977268, 26.78584571194511]]]}}, {"type": "Feature", "properties": {"parcelId": "JP-12-01", "landUse": "industrial", "source": "pre-generated cadastral-style demo"}, "geometry": {"type": "Polygon", "coordinates": [[[75.8255189208631, 26.78694951260962], [75.82637840559575, 26.786996286165603], [75.82640199757662, 26.787633277932404], [75.8255189208631, 26.78763195820566], [75.8255189208631, 26.78694951260962]]]}}, {"type": "Feature", "properties": {"parcelId": "JP-12-02", "landUse": "industrial", "source": "pre-generated cadastral-style demo"}, "geometry": {"type": "Polygon", "coordinates": [[[75.82689576909165, 26.787040756450782], [75.82770971799813, 26.78704519145699], [75.82767710297978, 26.787566082878538], [75.82689576909165, 26.78757837690359], [75.82689576909165, 26.787040756450782]]]}}, {"type": "Feature", "properties": {"parcelId": "JP-12-03", "landUse": "industrial", "source": "pre-generated cadastral-style demo"}, "geometry": {"type": "Polygon", "coordinates": [[[75.82819488143979, 26.787060855133163], [75.8287349776029, 26.78707105716081], [75.82876667311047, 26.78754379807424], [75.82819488143979, 26.787556686845672], [75.82819488143979, 26.787060855133163]]]}}, {"type": "Feature", "properties": {"parcelId": "JP-12-04", "landUse": "industrial", "source": "pre-generated cadastral-style demo"}, "geometry": {"type": "Polygon", "coordinates": [[[75.82947426336078, 26.786955523355314], [75.83016091963783, 26.787002447724024], [75.8301746819085, 26.7875377058819], [75.82947426336078, 26.787567986600536], [75.82947426336078, 26.786955523355314]]]}}, {"type": "Feature", "properties": {"parcelId": "JP-12-05", "landUse": "industrial", "source": "pre-generated cadastral-style demo"}, "geometry": {"type": "Polygon", "coordinates": [[[75.83070826963869, 26.7871059260068], [75.83142688298368, 26.78709374714201], [75.83139010430352, 26.78755346316562], [75.83070826963869, 26.787514788175802], [75.83070826963869, 26.7871059260068]]]}}, {"type": "Feature", "properties": {"parcelId": "JP-12-06", "landUse": "industrial", "source": "pre-generated cadastral-style demo"}, "geometry": {"type": "Polygon", "coordinates": [[[75.83194432570245, 26.786923892667883], [75.83269574944656, 26.786915961069884], [75.83273323187663, 26.787516491397977], [75.83194432570245, 26.787532302822548], [75.83194432570245, 26.786923892667883]]]}}, {"type": "Feature", "properties": {"parcelId": "JP-12-07", "landUse": "industrial", "source": "pre-generated cadastral-style demo"}, "geometry": {"type": "Polygon", "coordinates": [[[75.83322015490538, 26.786948267827235], [75.83370234268705, 26.78689897923518], [75.83370459675002, 26.78766572609978], [75.83322015490538, 26.787667307047425], [75.83322015490538, 26.786948267827235]]]}}, {"type": "Feature", "properties": {"parcelId": "JP-12-08", "landUse": "industrial", "source": "pre-generated cadastral-style demo"}, "geometry": {"type": "Polygon", "coordinates": [[[75.83434677636971, 26.787002457996504], [75.83505041390158, 26.787051308822907], [75.8350581790169, 26.787615962059558], [75.83434677636971, 26.787637897618296], [75.83434677636971, 26.787002457996504]]]}}, {"type": "Feature", "properties": {"parcelId": "JP-12-09", "landUse": "industrial", "source": "pre-generated cadastral-style demo"}, "geometry": {"type": "Polygon", "coordinates": [[[75.83564404800464, 26.787017406526918], [75.83645335019085, 26.787027431071092], [75.83641216425978, 26.787626073990953], [75.83564404800464, 26.787607121350792], [75.83564404800464, 26.787017406526918]]]}}, {"type": "Feature", "properties": {"parcelId": "JP-12-10", "landUse": "industrial", "source": "pre-generated cadastral-style demo"}, "geometry": {"type": "Polygon", "coordinates": [[[75.83680436755004, 26.786990794955063], [75.83759795132819, 26.787010639928322], [75.83760947032677, 26.78761501409522], [75.83680436755004, 26.7876289360457], [75.83680436755004, 26.786990794955063]]]}}, {"type": "Feature", "properties": {"parcelId": "JP-12-11", "landUse": "industrial", "source": "pre-generated cadastral-style demo"}, "geometry": {"type": "Polygon", "coordinates": [[[75.83807249303833, 26.787058010083843], [75.83887869899011, 26.78710431579779], [75.83887417489098, 26.787568528289025], [75.83807249303833, 26.787560844806602], [75.83807249303833, 26.787058010083843]]]}}, {"type": "Feature", "properties": {"parcelId": "JP-12-12", "landUse": "industrial", "source": "pre-generated cadastral-style demo"}, "geometry": {"type": "Polygon", "coordinates": [[[75.83932922596112, 26.786912604786373], [75.84011946548317, 26.786952257168647], [75.8401556678111, 26.787605242655673], [75.83932922596112, 26.787603800268638], [75.83932922596112, 26.786912604786373]]]}}, {"type": "Feature", "properties": {"parcelId": "JP-12-13", "landUse": "industrial", "source": "pre-generated cadastral-style demo"}, "geometry": {"type": "Polygon", "coordinates": [[[75.8406855412874, 26.7869801601478], [75.84130695645788, 26.786957067726046], [75.84135166826879, 26.787757886648947], [75.8406855412874, 26.78777253523363], [75.8406855412874, 26.7869801601478]]]}}, {"type": "Feature", "properties": {"parcelId": "JP-12-14", "landUse": "industrial", "source": "pre-generated cadastral-style demo"}, "geometry": {"type": "Polygon", "coordinates": [[[75.84200818320738, 26.78703582065778], [75.84250508845807, 26.787047887405265], [75.84250432249584, 26.78764873749026], [75.84200818320738, 26.787687566396606], [75.84200818320738, 26.78703582065778]]]}}, {"type": "Feature", "properties": {"parcelId": "JP-12-15", "landUse": "industrial", "source": "pre-generated cadastral-style demo"}, "geometry": {"type": "Polygon", "coordinates": [[[75.8431965922376, 26.786945953939927], [75.84395589006485, 26.786964874994833], [75.8439070720627, 26.787549982175946], [75.8431965922376, 26.787526842366802], [75.8431965922376, 26.786945953939927]]]}}, {"type": "Feature", "properties": {"parcelId": "JP-12-16", "landUse": "industrial", "source": "pre-generated cadastral-style demo"}, "geometry": {"type": "Polygon", "coordinates": [[[75.84444948120988, 26.78693858742208], [75.84520388597473, 26.78696066896802], [75.84523429473283, 26.787684263687737], [75.84444948120988, 26.78768869089153], [75.84444948120988, 26.78693858742208]]]}}, {"type": "Feature", "properties": {"parcelId": "JP-13-01", "landUse": "industrial", "source": "pre-generated cadastral-style demo"}, "geometry": {"type": "Polygon", "coordinates": [[[75.82566316759183, 26.78812454002366], [75.82620850434394, 26.788099968991936], [75.82624240151483, 26.78863072695364], [75.82566316759183, 26.788598431104585], [75.82566316759183, 26.78812454002366]]]}}, {"type": "Feature", "properties": {"parcelId": "JP-13-02", "landUse": "industrial", "source": "pre-generated cadastral-style demo"}, "geometry": {"type": "Polygon", "coordinates": [[[75.82685672225065, 26.78812262842245], [75.8276466199975, 26.78808046917459], [75.82765798637473, 26.788721400469285], [75.82685672225065, 26.788718500635746], [75.82685672225065, 26.78812262842245]]]}}, {"type": "Feature", "properties": {"parcelId": "JP-13-03", "landUse": "industrial", "source": "pre-generated cadastral-style demo"}, "geometry": {"type": "Polygon", "coordinates": [[[75.82811720187892, 26.788152451589358], [75.8289727098129, 26.788154545158523], [75.82896773867854, 26.788871609788746], [75.82811720187892, 26.788844995237312], [75.82811720187892, 26.788152451589358]]]}}, {"type": "Feature", "properties": {"parcelId": "JP-13-04", "landUse": "industrial", "source": "pre-generated cadastral-style demo"}, "geometry": {"type": "Polygon", "coordinates": [[[75.82951203409414, 26.787990310628597], [75.83002575860081, 26.7879792952494], [75.82999869419636, 26.78878294646068], [75.82951203409414, 26.78880195391894], [75.82951203409414, 26.787990310628597]]]}}, {"type": "Feature", "properties": {"parcelId": "JP-13-05", "landUse": "industrial", "source": "pre-generated cadastral-style demo"}, "geometry": {"type": "Polygon", "coordinates": [[[75.83060326462697, 26.788079074206223], [75.8313828292676, 26.788072571943363], [75.8313968079185, 26.788849991690277], [75.83060326462697, 26.78885269442076], [75.83060326462697, 26.788079074206223]]]}}, {"type": "Feature", "properties": {"parcelId": "JP-13-06", "landUse": "industrial", "source": "pre-generated cadastral-style demo"}, "geometry": {"type": "Polygon", "coordinates": [[[75.83182476384219, 26.788121282676887], [75.83261111152358, 26.78813098305211], [75.83264078826197, 26.78886046858739], [75.83182476384219, 26.78886432556305], [75.83182476384219, 26.788121282676887]]]}}, {"type": "Feature", "properties": {"parcelId": "JP-13-07", "landUse": "industrial", "source": "pre-generated cadastral-style demo"}, "geometry": {"type": "Polygon", "coordinates": [[[75.83321134667759, 26.788226153001396], [75.83379887548753, 26.788182999396668], [75.83376253789082, 26.788721353251702], [75.83321134667759, 26.788690181759744], [75.83321134667759, 26.788226153001396]]]}}, {"type": "Feature", "properties": {"parcelId": "JP-13-08", "landUse": "industrial", "source": "pre-generated cadastral-style demo"}, "geometry": {"type": "Polygon", "coordinates": [[[75.83434009381659, 26.78809507094245], [75.8351343839521, 26.7880822106506], [75.83515407743238, 26.788714429244802], [75.83434009381659, 26.788676968214517], [75.83434009381659, 26.78809507094245]]]}}, {"type": "Feature", "properties": {"parcelId": "JP-13-09", "landUse": "industrial", "source": "pre-generated cadastral-style demo"}, "geometry": {"type": "Polygon", "coordinates": [[[75.8357992896902, 26.788052481394736], [75.83635896164073, 26.788011877425134], [75.8363755624291, 26.788766610506414], [75.8357992896902, 26.78874328627698], [75.8357992896902, 26.788052481394736]]]}}, {"type": "Feature", "properties": {"parcelId": "JP-13-10", "landUse": "industrial", "source": "pre-generated cadastral-style demo"}, "geometry": {"type": "Polygon", "coordinates": [[[75.83677353275337, 26.788112526492085], [75.8375712889123, 26.788102107322114], [75.83754559784562, 26.78876640523609], [75.83677353275337, 26.78880391203045], [75.83677353275337, 26.788112526492085]]]}}, {"type": "Feature", "properties": {"parcelId": "JP-13-11", "landUse": "industrial", "source": "pre-generated cadastral-style demo"}, "geometry": {"type": "Polygon", "coordinates": [[[75.8381947069493, 26.788065512576566], [75.83880140277292, 26.788079977174533], [75.83878613454681, 26.788708852753473], [75.8381947069493, 26.788740196429586], [75.8381947069493, 26.788065512576566]]]}}, {"type": "Feature", "properties": {"parcelId": "JP-13-12", "landUse": "industrial", "source": "pre-generated cadastral-style demo"}, "geometry": {"type": "Polygon", "coordinates": [[[75.83953562105592, 26.78814956130501], [75.84007975841956, 26.78814449972499], [75.84011170027472, 26.788782016277143], [75.83953562105592, 26.788785344753315], [75.83953562105592, 26.78814956130501]]]}}, {"type": "Feature", "properties": {"parcelId": "JP-13-13", "landUse": "industrial", "source": "pre-generated cadastral-style demo"}, "geometry": {"type": "Polygon", "coordinates": [[[75.84064333974781, 26.788120256231096], [75.84128726155892, 26.78807988186082], [75.84130315066193, 26.788669065853355], [75.84064333974781, 26.78863256803443], [75.84064333974781, 26.788120256231096]]]}}, {"type": "Feature", "properties": {"parcelId": "JP-13-14", "landUse": "industrial", "source": "pre-generated cadastral-style demo"}, "geometry": {"type": "Polygon", "coordinates": [[[75.84184923915402, 26.788140950093993], [75.84270060064179, 26.788137756008336], [75.84271449231343, 26.788893781172998], [75.84184923915402, 26.788882655257087], [75.84184923915402, 26.788140950093993]]]}}, {"type": "Feature", "properties": {"parcelId": "JP-13-15", "landUse": "industrial", "source": "pre-generated cadastral-style demo"}, "geometry": {"type": "Polygon", "coordinates": [[[75.8431710947084, 26.788001398442745], [75.84387910577598, 26.788007240790748], [75.8438849199367, 26.78880039978057], [75.8431710947084, 26.78882008845067], [75.8431710947084, 26.788001398442745]]]}}, {"type": "Feature", "properties": {"parcelId": "JP-13-16", "landUse": "industrial", "source": "pre-generated cadastral-style demo"}, "geometry": {"type": "Polygon", "coordinates": [[[75.84448270798406, 26.788192847885828], [75.84512764530074, 26.78822546338333], [75.84510999039274, 26.788866144214705], [75.84448270798406, 26.788845402019195], [75.84448270798406, 26.788192847885828]]]}}, {"type": "Feature", "properties": {"parcelId": "JP-14-01", "landUse": "industrial", "source": "pre-generated cadastral-style demo"}, "geometry": {"type": "Polygon", "coordinates": [[[75.8255760801336, 26.7891557020688], [75.8263646893624, 26.78918793581461], [75.8264066005707, 26.789953041231296], [75.8255760801336, 26.789953942950362], [75.8255760801336, 26.7891557020688]]]}}, {"type": "Feature", "properties": {"parcelId": "JP-14-02", "landUse": "industrial", "source": "pre-generated cadastral-style demo"}, "geometry": {"type": "Polygon", "coordinates": [[[75.82682831940437, 26.78924663572872], [75.82766792904309, 26.789278587255204], [75.82762746544844, 26.78994777488666], [75.82682831940437, 26.7899591552565], [75.82682831940437, 26.78924663572872]]]}}, {"type": "Feature", "properties": {"parcelId": "JP-14-03", "landUse": "industrial", "source": "pre-generated cadastral-style demo"}, "geometry": {"type": "Polygon", "coordinates": [[[75.82808378380152, 26.78934728767122], [75.82877353714211, 26.789353778960617], [75.82875622030488, 26.789895014287303], [75.82808378380152, 26.789910835779512], [75.82808378380152, 26.78934728767122]]]}}, {"type": "Feature", "properties": {"parcelId": "JP-14-04", "landUse": "industrial", "source": "pre-generated cadastral-style demo"}, "geometry": {"type": "Polygon", "coordinates": [[[75.82935994447453, 26.78922135774205], [75.83011909268103, 26.78921944999225], [75.8300889035338, 26.789946170909907], [75.82935994447453, 26.789937796414193], [75.82935994447453, 26.78922135774205]]]}}, {"type": "Feature", "properties": {"parcelId": "JP-14-05", "landUse": "industrial", "source": "pre-generated cadastral-style demo"}, "geometry": {"type": "Polygon", "coordinates": [[[75.8306371375623, 26.789268832196075], [75.8312570241222, 26.789299111798517], [75.83126934233782, 26.79001746581738], [75.8306371375623, 26.790012702891307], [75.8306371375623, 26.789268832196075]]]}}, {"type": "Feature", "properties": {"parcelId": "JP-14-06", "landUse": "industrial", "source": "pre-generated cadastral-style demo"}, "geometry": {"type": "Polygon", "coordinates": [[[75.83183509767805, 26.789343015385885], [75.83261110287206, 26.789347657807284], [75.83263613838695, 26.789847765511308], [75.83183509767805, 26.78985166951569], [75.83183509767805, 26.789343015385885]]]}}, {"type": "Feature", "properties": {"parcelId": "JP-14-07", "landUse": "industrial", "source": "pre-generated cadastral-style demo"}, "geometry": {"type": "Polygon", "coordinates": [[[75.8331843131965, 26.789180553205938], [75.83392835334583, 26.78913246103833], [75.83396509439011, 26.789946266115365], [75.8331843131965, 26.789958219006945], [75.8331843131965, 26.789180553205938]]]}}, {"type": "Feature", "properties": {"parcelId": "JP-14-08", "landUse": "industrial", "source": "pre-generated cadastral-style demo"}, "geometry": {"type": "Polygon", "coordinates": [[[75.83438576485952, 26.7893025613544], [75.83500447682067, 26.789315084451424], [75.83497809729724, 26.789863326587305], [75.83438576485952, 26.789901586128686], [75.83438576485952, 26.7893025613544]]]}}, {"type": "Feature", "properties": {"parcelId": "JP-14-09", "landUse": "industrial", "source": "pre-generated cadastral-style demo"}, "geometry": {"type": "Polygon", "coordinates": [[[75.8357063770627, 26.789335052524727], [75.8363533103973, 26.78932769902443], [75.83633454867375, 26.789984211945914], [75.8357063770627, 26.789992641456703], [75.8357063770627, 26.789335052524727]]]}}, {"type": "Feature", "properties": {"parcelId": "JP-14-10", "landUse": "industrial", "source": "pre-generated cadastral-style demo"}, "geometry": {"type": "Polygon", "coordinates": [[[75.83683425793721, 26.78919139956554], [75.83752744255601, 26.789159813087124], [75.837561394807, 26.789899175767857], [75.83683425793721, 26.789870817594323], [75.83683425793721, 26.78919139956554]]]}}, {"type": "Feature", "properties": {"parcelId": "JP-14-11", "landUse": "industrial", "source": "pre-generated cadastral-style demo"}, "geometry": {"type": "Polygon", "coordinates": [[[75.83817050930894, 26.789263251317834], [75.83874338232265, 26.78924917745129], [75.83876219645111, 26.789958202471908], [75.83817050930894, 26.789956330649513], [75.83817050930894, 26.789263251317834]]]}}, {"type": "Feature", "properties": {"parcelId": "JP-14-12", "landUse": "industrial", "source": "pre-generated cadastral-style demo"}, "geometry": {"type": "Polygon", "coordinates": [[[75.83925516117064, 26.789234118726437], [75.84010600245311, 26.789270831626702], [75.84010499674297, 26.790048369782273], [75.83925516117064, 26.79003436143242], [75.83925516117064, 26.789234118726437]]]}}, {"type": "Feature", "properties": {"parcelId": "JP-14-13", "landUse": "industrial", "source": "pre-generated cadastral-style demo"}, "geometry": {"type": "Polygon", "coordinates": [[[75.84048761927225, 26.789338581085747], [75.84136595382087, 26.78932814220541], [75.84138947082903, 26.789966062146785], [75.84048761927225, 26.78997067822277], [75.84048761927225, 26.789338581085747]]]}}, {"type": "Feature", "properties": {"parcelId": "JP-14-14", "landUse": "industrial", "source": "pre-generated cadastral-style demo"}, "geometry": {"type": "Polygon", "coordinates": [[[75.84179236122542, 26.7892380549951], [75.84258385368217, 26.789257666409284], [75.84254738434959, 26.79003319197818], [75.84179236122542, 26.790026276722585], [75.84179236122542, 26.7892380549951]]]}}, {"type": "Feature", "properties": {"parcelId": "JP-14-15", "landUse": "industrial", "source": "pre-generated cadastral-style demo"}, "geometry": {"type": "Polygon", "coordinates": [[[75.84308324066103, 26.789291477478674], [75.84387966729872, 26.789336452867587], [75.84386753516186, 26.789916144059266], [75.84308324066103, 26.789906592620007], [75.84308324066103, 26.789291477478674]]]}}, {"type": "Feature", "properties": {"parcelId": "JP-14-16", "landUse": "industrial", "source": "pre-generated cadastral-style demo"}, "geometry": {"type": "Polygon", "coordinates": [[[75.84447898745746, 26.78925072774128], [75.84506023184751, 26.789286268846922], [75.84506458196347, 26.78985418480441], [75.84447898745746, 26.78981464484832], [75.84447898745746, 26.78925072774128]]]}}]}