{"type": "FeatureCollection", "features": [{"type": "Feature", "properties": {"name": "Industrial Link 1"}, "geometry": {"type": "LineString", "coordinates": [[75.825, 26.774649999999998], [75.847, 26.775049999999997]]}}, {"type": "Feature", "properties": {"name": "Industrial Link 4"}, "geometry": {"type": "LineString", "coordinates": [[75.825, 26.7781], [75.847, 26.778499999999998]]}}, {"type": "Feature", "properties": {"name": "Industrial Link 7"}, "geometry": {"type": "LineString", "coordinates": [[75.825, 26.78155], [75.847, 26.78195]]}}, {"type": "Feature", "properties": {"name": "Industrial Link 10"}, "geometry": {"type": "LineString", "coordinates": [[75.825, 26.785], [75.847, 26.7854]]}}, {"type": "Feature", "properties": {"name": "Industrial Link 13"}, "geometry": {"type": "LineString", "coordinates": [[75.825, 26.788449999999997], [75.847, 26.788849999999996]]}}, {"type": "Feature", "properties": {"name": "Estate Spine 1"}, "geometry": {"type": "LineString", "coordinates": [[75.826, 26.773699999999998], [75.82629999999999, 26.7917]]}}, {"type": "Feature", "properties": {"name": "Estate Spine 5"}, "geometry": {"type": "LineString", "coordinates": [[75.831, 26.773699999999998], [75.8313, 26.7917]]}}, {"type": "Feature", "properties": {"name": "Estate Spine 9"}, "geometry": {"type": "LineString", "coordinates": [[75.836, 26.773699999999998], [75.8363, 26.7917]]}}, {"type": "Feature", "properties": {"name": "Estate Spine 13"}, "geometry": {"type": "LineString", "coordinates": [[75.841, 26.773699999999998], [75.84129999999999, 26.7917]]}}, {"type": "Feature", "properties": {"name": "Estate Spine 17"}, "geometry": {"type": "LineString", "coordinates": [[75.846, 26.773699999999998], [75.8463, 26.7917]]}}]}